NORAD_CAT_ID,OBJECT_NAME,OBJECT_TYPE,EPOCH,MEAN_MOTION,ECCENTRICITY,INCLINATION,RA_OF_ASC_NODE,ARG_OF_PERICENTER,MEAN_ANOMALY,BSTAR,MEAN_MOTION_DOT,MEAN_MOTION_DDOT,TLE_LINE0,TLE_LINE1,TLE_LINE2,SEMIMAJOR_AXIS,PERIOD,APOGEE,PERIGEE,DECAYED
54800.0,STARLINK-5428,PAYLOAD,2023-01-06 22:08:19,15.7319784,0.0001356,53.2131,206.5951,53.213,306.9015,0.00023794,0.00032901,0.0,0 STARLINK-5428,1 54800U 22175AU  23006.92244214  .00032901  00000-0  23794-3 0  9996,2 54800  53.2131 206.5951 0001356  53.2130 306.9015 15.73197840  5061,6727.901,91.533,350.6790000000001,348.8540000000001,0.0
54800.0,STARLINK-5428,PAYLOAD,2023-01-06 23:39:47,15.73206414,9.56e-05,53.2122,206.2787,58.8565,301.2549,0.00028467,0.0003953,0.0,0 STARLINK-5428,1 54800U 22175AU  23006.98596831  .00039530  00000-0  28467-3 0  9994,2 54800  53.2122 206.2787 0000956  58.8565 301.2549 15.73206414  5072,6727.877,91.533,350.385,349.099,0.0
54800.0,STARLINK-5428,PAYLOAD,2023-01-07 19:29:02,15.73175615,8.02e-05,53.2133,202.1911,35.6324,324.4749,5.7905e-05,7.506e-05,0.0,0 STARLINK-5428,1 54800U 22175AU  23007.81183966  .00007506  00000-0  57905-4 0  9996,2 54800  53.2133 202.1911 0000802  35.6324 324.4749 15.73175615  3046,6727.965,91.535,350.369,349.29,0.0
54800.0,STARLINK-5428,PAYLOAD,2023-01-08 12:15:20,15.73221295,0.0001469,53.2114,198.7331,64.7349,295.3823,0.00025183,0.00034902,0.0,0 STARLINK-5428,1 54800U 22175AU  23008.51065227  .00034902  00000-0  25183-3 0  9995,2 54800  53.2114 198.7331 0001469  64.7349 295.3823 15.73221295  3158,6727.834,91.532,350.6880000000001,348.711,0.0
54800.0,STARLINK-5428,PAYLOAD,2023-01-08 21:24:12,15.73223709,8.72e-05,53.2137,196.846,63.2576,296.8533,0.0001643,0.00022524,0.0,0 STARLINK-5428,1 54800U 22175AU  23008.89181671  .00022524  00000-0  16430-3 0  9990,2 54800  53.2137 196.8460 0000872  63.2576 296.8533 15.73223709  5370,6727.828,91.532,350.279,349.106,0.0
54800.0,STARLINK-5428,PAYLOAD,2023-01-09 05:01:37,15.7321283,0.0002444,53.2118,195.275,63.6617,296.4654,0.00010942,0.00014772,0.0,0 STARLINK-5428,1 54800U 22175AU  23009.20946161  .00014772  00000-0  10942-3 0  9997,2 54800  53.2118 195.2750 0002444  63.6617 296.4654 15.73212830  3260,6727.859,91.532,351.36800000000005,348.079,0.0
54800.0,STARLINK-5428,PAYLOAD,2023-01-10 05:25:17,15.73229707,0.0001416,53.2132,190.2444,56.1821,303.9333,7.6574e-05,0.00010153,0.0,0 STARLINK-5428,1 54800U 22175AU  23010.22589392  .00010153  00000-0  76574-4 0  9993,2 54800  53.2132 190.2444 0001416  56.1821 303.9333 15.73229707  3420,6727.81,91.531,350.6280000000001,348.723,0.0
54800.0,STARLINK-5428,PAYLOAD,2023-01-10 20:40:05,15.73201568,0.0002361,53.2123,187.1035,56.2087,303.9158,6.6327e-05,8.698e-05,0.0,0 STARLINK-5428,1 54800U 22175AU  23010.86117933  .00008698  00000-0  66327-4 0  9997,2 54800  53.2123 187.1035 0002361  56.2087 303.9158 15.73201568  3527,6727.891,91.533,351.344,348.167,0.0
54800.0,STARLINK-5428,PAYLOAD,2023-01-11 21:03:46,15.73205767,8.72e-05,53.2134,182.0726,318.3059,41.7895,4.308e-05,5.432e-05,0.0,0 STARLINK-5428,1 54800U 22175AU  23011.87762536  .00005432  00000-0  43080-4 0  9998,2 54800  53.2134 182.0726 0000872 318.3059  41.7895 15.73205767  5843,6727.879,91.533,350.33,349.157,0.0
54800.0,STARLINK-5428,PAYLOAD,2023-01-12 04:41:11,15.73172129,5.6600000000000014e-05,53.2152,180.5002,28.7328,331.3723,1.0236e-05,8.17e-06,0.0,0 STARLINK-5428,1 54800U 22175AU  23012.19527343  .00000817  00000-0  10236-4 0  9998,2 54800  53.2152 180.5002 0000566  28.7328 331.3723 15.73172129  3733,6727.975,91.535,350.22,349.459,0.0
54800.0,STARLINK-5428,PAYLOAD,2023-01-13 03:33:23,15.73219828,4.9700000000000015e-05,53.2148,175.7833,48.618,311.4882,0.00012337,0.00016744,0.0,0 STARLINK-5428,1 54800U 22175AU  23013.14819298  .00016744  00000-0  12337-3 0  9996,2 54800  53.2148 175.7833 0000497  48.6180 311.4882 15.73219828  3885,6727.839,91.532,350.038,349.369,0.0
54800.0,STARLINK-5428,PAYLOAD,2023-01-13 12:42:16,15.73206077,9.66e-05,53.2156,173.8969,66.5927,293.5195,4.3666000000000005e-05,5.514e-05,0.0,0 STARLINK-5428,1 54800U 22175AU  23013.52936298  .00005514  00000-0  43666-4 0  9991,2 54800  53.2156 173.8969 0000966  66.5927 293.5195 15.73206077  3948,6727.878000000001,91.533,350.39300000000003,349.093,0.0
54800.0,STARLINK-5428,PAYLOAD,2023-01-14 10:03:00,15.7320444,9.2e-05,53.2156,169.4964,60.7562,299.355,3.938e-06,-6.6e-07,0.0,0 STARLINK-5428,1 54800U 22175AU  23014.41875393 -.00000066  00000-0  39380-5 0  9995,2 54800  53.2156 169.4964 0000920  60.7562 299.3550 15.73204440  4082,6727.883000000001,91.533,350.366,349.129,0.0
54800.0,STARLINK-5428,PAYLOAD,2023-01-15 13:29:38,15.73216084,0.0001054999999999,53.2161,163.8376,95.8941,264.2199,2.1013e-05,2.332e-05,0.0,0 STARLINK-5428,1 54800U 22175AU  23015.56224916  .00002332  00000-0  21013-4 0  9991,2 54800  53.2161 163.8376 0001055  95.8941 264.2199 15.73216084  4260,6727.849,91.532,350.42400000000004,349.005,0.0
54800.0,STARLINK-5428,PAYLOAD,2023-01-15 16:32:35,15.73232556,0.0001027,53.2146,163.2088,91.919,268.1947,5.3135e-05,6.854e-05,0.0,0 STARLINK-5428,1 54800U 22175AU  23015.68929580  .00006854  00000-0  53135-4 0  9996,2 54800  53.2146 163.2088 0001027  91.9190 268.1947 15.73232556  4287,6727.802,91.531,350.358,348.976,0.0
54800.0,STARLINK-5428,PAYLOAD,2023-01-16 18:27:46,15.73194031,9.04e-05,53.2157,157.8633,104.6595,255.4525,-9.9113e-06,-2.009e-05,0.0,0 STARLINK-5428,1 54800U 22175AU  23016.76929270 -.00002009  00000-0 -99113-5 0  9999,2 54800  53.2157 157.8633 0000904 104.6595 255.4525 15.73194031  4453,6727.911999999999,91.534,350.385,349.16900000000004,0.0
54800.0,STARLINK-5428,PAYLOAD,2023-01-17 02:05:10,15.7320971,0.0001,53.215,156.2908,105.3537,254.7593,1.415e-05,1.367e-05,0.0,0 STARLINK-5428,1 54800U 22175AU  23017.08692818  .00001367  00000-0  14150-4 0  9991,2 54800  53.2150 156.2908 0001000 105.3537 254.7593 15.73209710  4500,6727.866999999999,91.533,350.405,349.06,0.0
54800.0,STARLINK-5428,PAYLOAD,2023-01-17 09:42:33,15.73235823,0.0001019,53.2154,154.72,106.1316,253.9816,4.8381e-05,6.185e-05,0.0,0 STARLINK-5428,1 54800U 22175AU  23017.40455209  .00006185  00000-0  48381-4 0  9994,2 54800  53.2154 154.7200 0001019 106.1316 253.9816 15.73235823  6714,6727.793000000001,91.531,350.344,348.972,0.0
54800.0,STARLINK-5428,PAYLOAD,2023-01-17 18:51:26,15.73214326,9e-05,53.2158,152.8329,108.3629,251.7489,-1.8589e-05,-3.229e-05,0.0,0 STARLINK-5428,1 54800U 22175AU  23017.78572647 -.00003229  00000-0 -18589-4 0  9996,2 54800  53.2158 152.8329 0000900 108.3629 251.7489 15.73214326  6771,6727.854,91.532,350.325,349.11400000000003,0.0
54800.0,STARLINK-5428,PAYLOAD,2023-01-18 08:34:46,15.73207356,0.0001781999999999,53.2163,150.0043,112.5433,247.5776,2.7772e-05,3.28e-05,0.0,0 STARLINK-5428,1 54800U 22175AU  23018.35748297  .00003280  00000-0  27772-4 0  9995,2 54800  53.2163 150.0043 0001782 112.5433 247.5776 15.73207356  4707,6727.874,91.533,350.93800000000005,348.54,0.0
54800.0,STARLINK-5428,PAYLOAD,2023-01-18 19:15:07,15.73215145,9.23e-05,53.2144,147.8049,95.0117,265.1008,2.9681e-05,3.55e-05,0.0,0 STARLINK-5428,1 54800U 22175AU  23018.80217301  .00003550  00000-0  29681-4 0  9993,2 54800  53.2144 147.8049 0000923  95.0117 265.1008 15.73215145  6932,6727.852,91.532,350.338,349.096,0.0
54800.0,STARLINK-5428,PAYLOAD,2023-01-19 08:58:26,15.73222188,0.0001668,53.215,144.9738,105.5177,254.6027,7.6564e-06,4.55e-06,0.0,0 STARLINK-5428,1 54800U 22175AU  23019.37392150  .00000455  00000-0  76564-5 0  9996,2 54800  53.2150 144.9738 0001668 105.5177 254.6027 15.73222188  4861,6727.831999999999,91.532,350.819,348.575,0.0
54800.0,STARLINK-5428,PAYLOAD,2023-01-19 15:04:22,15.73217635,0.0001271,53.2161,143.7168,85.3538,274.7628,3.197e-05,3.872e-05,0.0,0 STARLINK-5428,1 54800U 22175AU  23019.62803597  .00003872  00000-0  31970-4 0  9993,2 54800  53.2161 143.7168 0001271  85.3538 274.7628 15.73217635  4909,6727.845,91.532,350.565,348.855,0.0
54800.0,STARLINK-5428,PAYLOAD,2023-01-20 07:50:39,15.73214801,0.0001614,53.2151,140.261,49.8832,310.2329,1.2534e-05,1.14e-05,0.0,0 STARLINK-5428,1 54800U 22175AU  23020.32684338  .00001140  00000-0  12534-4 0  9993,2 54800  53.2151 140.2610 0001614  49.8832 310.2329 15.73214801  5014,6727.853,91.532,350.80400000000003,348.63199999999995,0.0
54800.0,STARLINK-5428,PAYLOAD,2023-01-20 16:59:33,15.73178097,0.0001472,53.2161,138.3727,54.9934,305.1225,-5.0269e-05,-7.662e-05,0.0,0 STARLINK-5428,1 54800U 22175AU  23020.70802857 -.00007662  00000-0 -50269-4 0  9997,2 54800  53.2161 138.3727 0001472  54.9934 305.1225 15.73178097  5074,6727.9580000000005,91.534,350.81300000000005,348.832,0.0
54800.0,STARLINK-5428,PAYLOAD,2023-01-21 06:42:52,15.73201089,8.44e-05,53.2165,135.5417,46.4085,313.7005,1.9224e-05,2.08e-05,0.0,0 STARLINK-5428,1 54800U 22175AU  23021.27976870  .00002080  00000-0  19224-4 0  9990,2 54800  53.2165 135.5417 0000844  46.4085 313.7005 15.73201089  5167,6727.892,91.533,350.325,349.189,0.0
54800.0,STARLINK-5428,PAYLOAD,2023-01-21 15:51:44,15.732085,0.0001484,53.2162,133.6579,50.1028,310.0123,-2.5061e-06,-9.72e-06,0.0,0 STARLINK-5428,1 54800U 22175AU  23021.66093224 -.00000972  00000-0 -25061-5 0  9993,2 54800  53.2162 133.6579 0001484  50.1028 310.0123 15.73208500  5225,6727.871,91.533,350.73400000000004,348.73800000000006,0.0
54800.0,STARLINK-5428,PAYLOAD,2023-01-22 16:15:25,15.73222356,0.0001636,53.2161,128.6275,58.2149,301.903,2.2191e-05,2.498e-05,0.0,0 STARLINK-5428,1 54800U 22175AU  23022.67737403  .00002498  00000-0  22191-4 0  9992,2 54800  53.2161 128.6275 0001636  58.2149 301.9030 15.73222356  5381,6727.831,91.532,350.797,348.596,0.0
54800.0,STARLINK-5428,PAYLOAD,2023-01-23 05:58:44,15.73214602,0.0001019,53.2165,125.7977,65.0892,295.0234,1.8247e-05,1.943e-05,0.0,0 STARLINK-5428,1 54800U 22175AU  23023.24912631  .00001943  00000-0  18247-4 0  9995,2 54800  53.2165 125.7977 0001019  65.0892 295.0234 15.73214602  5472,6727.854,91.532,350.404,349.033,0.0
